start=new Date('2022-10-28T00:00:00.000Z').valueOf();
sats=[{"APOAPSIS":"548.081","INCLINATION":"53.0534","COUNTRY_CODE":"US","TLE_LINE1":"1 47378U 21005AF  22300.82246469  .00000715  00000-0  66877-4 0  9996","RCS_SIZE":"LARGE","SEMIMAJOR_AXIS":"6925.360","SITE":"AFETR","NORAD_CAT_ID":"47378","OBJECT_TYPE":"PAYLOAD","OBJECT_NAME":"STARLINK-2098","MEAN_ELEMENT_THEORY":"SGP4","PERIAPSIS":"546.368","RA_OF_ASC_NODE":"138.2269","MEAN_ANOMALY":"249.6189","EPOCH":"2022-10-27T19:44:20.949216","CENTER_NAME":"EARTH","MEAN_MOTION":"15.06396337","TIME_SYSTEM":"UTC","GP_ID":"216334845","LAUNCH_DATE":"2021-01-20","DECAY_DATE":null,"REF_FRAME":"TEME","ECCENTRICITY":"0.00012370","PERIOD":"95.592","EPHEMERIS_TYPE":"0","ARG_OF_PERICENTER":"110.4933","ELEMENT_SET_NO":"999","CLASSIFICATION_TYPE":"U","REV_AT_EPOCH":"9838","MEAN_MOTION_DDOT":"0.0000000000000","OBJECT_ID":"2021-005AF","TLE_LINE2":"2 47378  53.0534 138.2269 0001237 110.4933 249.6189 15.06396337 98386","FILE":"3636022","BSTAR":"0.00006687700000","MEAN_MOTION_DOT":"0.00000715"},{"ELEMENT_SET_NO":"999","REV_AT_EPOCH":"9838","CLASSIFICATION_TYPE":"U","ARG_OF_PERICENTER":"114.8099","PERIOD":"95.591","EPHEMERIS_TYPE":"0","ECCENTRICITY":"0.00013780","REF_FRAME":"TEME","MEAN_MOTION_DOT":"0.00006016","BSTAR":"0.00042227000000","FILE":"3636022","OBJECT_ID":"2021-005AG","TLE_LINE2":"2 47379  53.0527 138.1962 0001378 114.8099 245.3033 15.06413677 98383","MEAN_MOTION_DDOT":"0.0000000000000","MEAN_MOTION":"15.06413677","CENTER_NAME":"EARTH","MEAN_ANOMALY":"245.3033","EPOCH":"2022-10-27T19:54:57.949632","DECAY_DATE":null,"LAUNCH_DATE":"2021-01-20","TIME_SYSTEM":"UTC","GP_ID":"216335093","RA_OF_ASC_NODE":"138.1962","MEAN_ELEMENT_THEORY":"SGP4","PERIAPSIS":"546.217","OBJECT_NAME":"STARLINK-2099","NORAD_CAT_ID":"47379","SITE":"AFETR","OBJECT_TYPE":"PAYLOAD","COUNTRY_CODE":"US","INCLINATION":"53.0527","APOAPSIS":"548.126","SEMIMAJOR_AXIS":"6925.307","RCS_SIZE":"LARGE","TLE_LINE1":"1 47379U 21005AG  22300.82983738  .00006016  00000-0  42227-3 0  9996"},{"SEMIMAJOR_AXIS":"6925.344","TLE_LINE1":"1 47380U 21005AH  22300.85840319  .00000546  00000-0  55574-4 0  9990","RCS_SIZE":"LARGE","COUNTRY_CODE":"US","INCLINATION":"53.0556","APOAPSIS":"548.218","RA_OF_ASC_NODE":"148.0557","PERIAPSIS":"546.200","MEAN_ELEMENT_THEORY":"SGP4","OBJECT_NAME":"STARLINK-2100","OBJECT_TYPE":"PAYLOAD","SITE":"AFETR","NORAD_CAT_ID":"47380","DECAY_DATE":null,"LAUNCH_DATE":"2021-01-20","GP_ID":"216335847","TIME_SYSTEM":"UTC","MEAN_MOTION":"15.06401613","CENTER_NAME":"EARTH","MEAN_ANOMALY":"263.2636","EPOCH":"2022-10-27T20:36:06.035616","MEAN_MOTION_DOT":"0.00000546","BSTAR":"0.00005557400000","FILE":"3636022","TLE_LINE2":"2 47380  53.0556 148.0557 0001457  96.8519 263.2636 15.06401613 98252","OBJECT_ID":"2021-005AH","MEAN_MOTION_DDOT":"0.0000000000000","CLASSIFICATION_TYPE":"U","ELEMENT_SET_NO":"999","REV_AT_EPOCH":"9825","ARG_OF_PERICENTER":"96.8519","PERIOD":"95.592","EPHEMERIS_TYPE":"0","REF_FRAME":"TEME","ECCENTRICITY":"0.00014570"},{"MEAN_MOTION_DOT":"0.00003827","BSTAR":"0.00027558000000","FILE":"3636022","OBJECT_ID":"2021-005AJ","TLE_LINE2":"2 47381  53.0526 153.0643 0001293 102.0603 258.0531 15.06414352 98186","MEAN_MOTION_DDOT":"0.0000000000000","CLASSIFICATION_TYPE":"U","ELEMENT_SET_NO":"999","REV_AT_EPOCH":"9818","ARG_OF_PERICENTER":"102.0603","PERIOD":"95.591","EPHEMERIS_TYPE":"0","ECCENTRICITY":"0.00012930","REF_FRAME":"TEME","DECAY_DATE":null,"LAUNCH_DATE":"2021-01-20","GP_ID":"216334595","TIME_SYSTEM":"UTC","MEAN_MOTION":"15.06414352","CENTER_NAME":"EARTH","EPOCH":"2022-10-27T20:59:19.861152","MEAN_ANOMALY":"258.0531","RA_OF_ASC_NODE":"153.0643","PERIAPSIS":"546.274","MEAN_ELEMENT_THEORY":"SGP4","OBJECT_NAME":"STARLINK-2101","SITE":"AFETR","NORAD_CAT_ID":"47381","OBJECT_TYPE":"PAYLOAD","SEMIMAJOR_AXIS":"6925.305","RCS_SIZE":"LARGE","TLE_LINE1":"1 47381U 21005AJ  22300.87453543  .00003827  00000-0  27558-3 0  9997","COUNTRY_CODE":"US","INCLINATION":"53.0526","APOAPSIS":"548.065"},{"EPOCH":"2022-10-27T20:25:29.356608","MEAN_ANOMALY":"246.9317","CENTER_NAME":"EARTH","MEAN_MOTION":"15.06399195","GP_ID":"216334346","TIME_SYSTEM":"UTC","DECAY_DATE":null,"LAUNCH_DATE":"2021-01-20","ECCENTRICITY":"0.00012960","REF_FRAME":"TEME","PERIOD":"95.592","EPHEMERIS_TYPE":"0","ARG_OF_PERICENTER":"113.1809","REV_AT_EPOCH":"9824","ELEMENT_SET_NO":"999","CLASSIFICATION_TYPE":"U","MEAN_MOTION_DDOT":"0.0000000000000","TLE_LINE2":"2 47382  53.0540 148.0994 0001296 113.1809 246.9317 15.06399195 98242","OBJECT_ID":"2021-005AK","FILE":"3636022","BSTAR":"0.00007481100000","MEAN_MOTION_DOT":"0.00000833","APOAPSIS":"548.114","INCLINATION":"53.0540","COUNTRY_CODE":"US","RCS_SIZE":"LARGE","TLE_LINE1":"1 47382U 21005AK  22300.85103422  .00000833  00000-0  74811-4 0  9993","SEMIMAJOR_AXIS":"6925.351","SITE":"AFETR","OBJECT_TYPE":"PAYLOAD","NORAD_CAT_ID":"47382","OBJECT_NAME":"STARLINK-2102","MEAN_ELEMENT_THEORY":"SGP4","PERIAPSIS":"546.318","RA_OF_ASC_NODE":"148.0994"},{"CLASSIFICATION_TYPE":"U","ELEMENT_SET_NO":"999","REV_AT_EPOCH":"9838","ARG_OF_PERICENTER":"98.5869","EPHEMERIS_TYPE":"0","PERIOD":"95.592","ECCENTRICITY":"0.00013420","REF_FRAME":"TEME","MEAN_MOTION_DOT":"0.00001968","BSTAR":"0.00015098000000","FILE":"3636022","TLE_LINE2":"2 47383  53.0536 138.3078 0001342  98.5869 261.5272 15.06398380 98380","OBJECT_ID":"2021-005AL","MEAN_MOTION_DDOT":"0.0000000000000","MEAN_MOTION":"15.06398380","CENTER_NAME":"EARTH","EPOCH":"2022-10-27T19:16:27.606720","MEAN_ANOMALY":"261.5272","DECAY_DATE":null,"LAUNCH_DATE":"2021-01-20","GP_ID":"216335593","TIME_SYSTEM":"UTC","RA_OF_ASC_NODE":"138.3078","MEAN_ELEMENT_THEORY":"SGP4","PERIAPSIS":"546.289","OBJECT_NAME":"STARLINK-2103","OBJECT_TYPE":"PAYLOAD","SITE":"AFETR","NORAD_CAT_ID":"47383","COUNTRY_CODE":"US","INCLINATION":"53.0536","APOAPSIS":"548.148","SEMIMAJOR_AXIS":"6925.354","RCS_SIZE":"LARGE","TLE_LINE1":"1 47383U 21005AL  22300.80309730  .00001968  00000-0  15098-3 0  9990"},{"LAUNCH_DATE":"2021-01-20","DECAY_DATE":null,"GP_ID":"216335348","TIME_SYSTEM":"UTC","CENTER_NAME":"EARTH","EPOCH":"2022-10-27T20:04:19.731936","MEAN_ANOMALY":"249.5401","MEAN_MOTION":"15.06403667","OBJECT_ID":"2021-005AM","TLE_LINE2":"2 47384  53.0516 148.3909 0001419 110.5741 249.5401 15.06403667 98242","MEAN_MOTION_DDOT":"0.0000000000000","MEAN_MOTION_DOT":"0.00008084","BSTAR":"0.00056095000000","FILE":"3636022","PERIOD":"95.592","EPHEMERIS_TYPE":"0","ECCENTRICITY":"0.00014190","REF_FRAME":"TEME","REV_AT_EPOCH":"9824","ELEMENT_SET_NO":"999","CLASSIFICATION_TYPE":"U","ARG_OF_PERICENTER":"110.5741","TLE_LINE1":"1 47384U 21005AM  22300.83633949  .00008084  00000-0  56095-3 0  9994","RCS_SIZE":"LARGE","SEMIMAJOR_AXIS":"6925.337","APOAPSIS":"548.185","COUNTRY_CODE":"US","INCLINATION":"53.0516","SITE":"AFETR","NORAD_CAT_ID":"47384","OBJECT_TYPE":"PAYLOAD","RA_OF_ASC_NODE":"148.3909","MEAN_ELEMENT_THEORY":"SGP4","PERIAPSIS":"546.220","OBJECT_NAME":"STARLINK-2104"},{"COUNTRY_CODE":"US","INCLINATION":"53.0536","APOAPSIS":"548.206","SEMIMAJOR_AXIS":"6925.384","RCS_SIZE":"LARGE","TLE_LINE1":"1 47385U 21005AN  22300.83262250  .00001010  00000-0  86716-4 0  9994","RA_OF_ASC_NODE":"148.1745","PERIAPSIS":"546.292","MEAN_ELEMENT_THEORY":"SGP4","OBJECT_NAME":"STARLINK-2105","SITE":"AFETR","OBJECT_TYPE":"PAYLOAD","NORAD_CAT_ID":"47385","MEAN_MOTION":"15.06388416","CENTER_NAME":"EARTH","EPOCH":"2022-10-27T19:58:58.584000","MEAN_ANOMALY":"262.3719","LAUNCH_DATE":"2021-01-20","DECAY_DATE":null,"TIME_SYSTEM":"UTC","GP_ID":"216334096","REV_AT_EPOCH":"9824","CLASSIFICATION_TYPE":"U","ELEMENT_SET_NO":"999","ARG_OF_PERICENTER":"97.7427","EPHEMERIS_TYPE":"0","PERIOD":"95.593","ECCENTRICITY":"0.00013820","REF_FRAME":"TEME","MEAN_MOTION_DOT":"0.00001010","BSTAR":"0.00008671600000","FILE":"3636022","TLE_LINE2":"2 47385  53.0536 148.1745 0001382  97.7427 262.3719 15.06388416 98246","OBJECT_ID":"2021-005AN","MEAN_MOTION_DDOT":"0.0000000000000"},{"ECCENTRICITY":"0.00013830","REF_FRAME":"TEME","EPHEMERIS_TYPE":"0","PERIOD":"95.592","ARG_OF_PERICENTER":"103.3977","REV_AT_EPOCH":"9825","ELEMENT_SET_NO":"999","CLASSIFICATION_TYPE":"U","MEAN_MOTION_DDOT":"0.0000000000000","OBJECT_ID":"2021-005AP","TLE_LINE2":"2 47386  53.0532 148.0488 0001383 103.3977 256.7167 15.06405371 98256","FILE":"3636022","BSTAR":"0.00014457000000","MEAN_MOTION_DOT":"0.00001873","MEAN_ANOMALY":"256.7167","EPOCH":"2022-10-27T20:41:24.763488","CENTER_NAME":"EARTH","MEAN_MOTION":"15.06405371","GP_ID":"216334846","TIME_SYSTEM":"UTC","LAUNCH_DATE":"2021-01-20","DECAY_DATE":null,"NORAD_CAT_ID":"47386","SITE":"AFETR","OBJECT_TYPE":"PAYLOAD","OBJECT_NAME":"STARLINK-2106","PERIAPSIS":"546.239","MEAN_ELEMENT_THEORY":"SGP4","RA_OF_ASC_NODE":"148.0488","APOAPSIS":"548.155","INCLINATION":"53.0532","COUNTRY_CODE":"US","RCS_SIZE":"LARGE","TLE_LINE1":"1 47386U 21005AP  22300.86209217  .00001873  00000-0  14457-3 0  9991","SEMIMAJOR_AXIS":"6925.332"},{"COUNTRY_CODE":"US","INCLINATION":"53.0559","APOAPSIS":"548.221","SEMIMAJOR_AXIS":"6925.349","RCS_SIZE":"LARGE","TLE_LINE1":"1 47387U 21005AQ  22300.84826846  .00001473  00000-0  11775-3 0  9999","OBJECT_NAME":"STARLINK-2108","RA_OF_ASC_NODE":"178.1009","MEAN_ELEMENT_THEORY":"SGP4","PERIAPSIS":"546.206","NORAD_CAT_ID":"47387","SITE":"AFETR","OBJECT_TYPE":"PAYLOAD","MEAN_MOTION":"15.06399966","MEAN_ANOMALY":"261.1019","EPOCH":"2022-10-27T20:21:30.394944","CENTER_NAME":"EARTH","GP_ID":"216335094","TIME_SYSTEM":"UTC","DECAY_DATE":null,"LAUNCH_DATE":"2021-01-20","ARG_OF_PERICENTER":"99.0135","REV_AT_EPOCH":"9782","ELEMENT_SET_NO":"999","CLASSIFICATION_TYPE":"U","PERIOD":"95.592","EPHEMERIS_TYPE":"0","REF_FRAME":"TEME","ECCENTRICITY":"0.00014550","FILE":"3636022","MEAN_MOTION_DOT":"0.00001473","BSTAR":"0.00011775000000","MEAN_MOTION_DDOT":"0.0000000000000","OBJECT_ID":"2021-005AQ","TLE_LINE2":"2 47387  53.0559 178.1009 0001455  99.0135 261.1019 15.06399966 97826"}];
